FENGYUN 1C DEB          
1 36211U 99025DUL 17345.91203513  .00000221  00000-0  86427-4 0  9998
2 36211  98.7025  30.8518 0292911  58.4569 304.4858 14.17775295528951
